ORBCOMM FM05 [-]        
1 25117U 97084F   23346.50067541  .00001168  00000+0  39742-3 0  9993
2 25117  45.0151 132.6058 0001801 302.4011  57.6664 14.41840888361673
ORBCOMM FM06 [+]        
1 25118U 97084G   23346.55108549  .00001211  00000+0  41056-3 0  9993
2 25118  45.0144 132.5400 0000889 305.6351 170.6973 14.41806895361672
ORBCOMM FM07 [-]        
1 25119U 97084H   23346.51270627  .00001230  00000+0  41683-3 0  9994
2 25119  45.0126 133.1851 0002617 292.3272  67.7301 14.41749252361668
ORBCOMM FM03 [-]        
1 25158U 98007B   23346.17523535  .00000785  00000+0  33980-3 0  9999
2 25158 107.9751  82.0760 0046443 136.6865 223.7938 14.31578468344824
ORBCOMM FM04 [+]        
1 25159U 98007C   23346.19083252  .00000888  00000+0  37711-3 0  9999
2 25159 107.9734  84.9437 0041837 134.8170 225.6380 14.31841298344993
ORBCOMM FM17 [-]        
1 25413U 98046A   23345.95852345  .00000612  00000+0  27472-3 0  9993
2 25413  44.9965 343.1296 0003946 302.9261  57.1205 14.32600974323775
ORBCOMM FM19 [+]        
1 25415U 98046C   23343.28830269  .00001063  00000+0  41876-3 0  9995
2 25415  44.9952 287.1289 0004497 342.6218 171.7111 14.35040854324269
